STARLINK-31178          
1 59025U 24038C   24232.36289715 -.00006345  00000+0 -23303-3 0  9995
2 59025  42.9998 345.7394 0001760 198.8251 161.2535 15.25891262 27943
STARLINK-31227          
1 59026U 24038D   24232.36061780 -.00001521  00000+0 -48285-4 0  9994
2 59026  43.0030 345.7254 0001511 239.3667 120.7036 15.25919426 28056
STARLINK-30863          
1 59027U 24038E   24232.68565274 -.00006663  00000+0 -24519-3 0  9992
2 59027  43.0096 343.8696 0002695 269.4442  90.6101 15.25892239 28002
STARLINK-31206          
1 59028U 24038F   24232.60957055  .00000248  00000+0  13216-4 0  9991
2 59028  43.0037 309.2331 0001788 199.8865 160.1922 15.40644297 28513
STARLINK-31224          
1 59029U 24038G   24232.35610643  .00005793  00000+0  23099-3 0  9992
2 59029  42.9995 345.6911 0001007 217.7570 142.3211 15.25930845 28052
STARLINK-31186          
1 59030U 24038H   24232.35384110 -.00006246  00000+0 -22914-3 0  9992
2 59030  43.0080 345.6809 0002665 281.0938  78.9613 15.25900819 28058
STARLINK-31211          
1 59031U 24038J   24232.67888722 -.00015421  00000+0 -58187-3 0  9992
2 59031  42.9989 343.8134 0000352 209.6749 150.4082 15.25856893 28006
STARLINK-30862          
1 59032U 24038K   24232.57947965 -.00002609  00000+0 -90015-4 0  9998
2 59032  43.0005 343.9487 0000700 208.1640 151.9173 15.25887252 27998
STARLINK-31210          
1 59033U 24038L   24232.57723575  .00017090  00000+0  66222-3 0  9998
2 59033  42.9979 343.9224 0001612 190.5370 169.5448 15.25880467 28153
STARLINK-31231          
1 59034U 24038M   24232.37631121 -.00003802  00000+0 -13556-3 0  9992
2 59034  43.0014 344.9951 0001617 242.4618 117.6069 15.25907746 27951
STARLINK-31207          
1 59035U 24038N   24232.37407248 -.00009355  00000+0 -34839-3 0  9990
2 59035  43.0021 344.9775 0001025 278.1010  81.9725 15.25895811 28120
STARLINK-31217          
1 59036U 24038P   24232.54529979  .00003614  00000+0  93820-4 0  9992
2 59036  43.0014 322.9061 0002619 274.9997  85.0561 15.40674828 28397
STARLINK-31208          
1 59037U 24038Q   24232.34240544 -.00010392  00000+0 -38810-3 0  9999
2 59037  43.0065 344.7087 0003195 293.1565  66.8949 15.25892426 28125
STARLINK-31235          
1 59038U 24038R   24232.30634379 -.00003702  00000+0 -13181-3 0  9990
2 59038  42.9990 345.3222 0001171 195.7008 164.3807 15.25896914 28055
STARLINK-31220          
1 59039U 24038S   24232.40345468 -.00020112  00000+0 -76181-3 0  9993
2 59039  43.0062 345.1993 0002985 288.8506  71.2021 15.25874143 28067
STARLINK-31225          
1 59040U 24038T   24232.67619975 -.00013149  00000+0 -49419-3 0  9997
2 59040  43.0064 341.1713 0001689 282.4735  77.5927 15.25878525 28029
STARLINK-31240          
1 59041U 24038U   24232.65850457 -.00003816  00000+0 -13606-3 0  9997
2 59041  43.0031 343.6722 0001340 248.4908 111.5800 15.25918804 28124
STARLINK-31202          
1 59042U 24038V   24232.57483838 -.00004573  00000+0 -16518-3 0  9990
2 59042  43.0061 343.0583 0001471 281.4042  78.6644 15.25887268 28160
STARLINK-31234          
1 59043U 24038W   24232.71718938 -.00001667  00000+0 -53917-4 0  9995
2 59043  43.0020 343.2606 0001448 254.9683 105.1008 15.25905133 27952
STARLINK-31153          
1 59044U 24038X   24232.69456551  .00015729  00000+0  61173-3 0  9997
2 59044  42.9997 343.0679 0001294 214.3518 145.7249 15.25807817 28002
STARLINK-31241          
1 59045U 24038Y   24232.71492101 -.00000867  00000+0 -23277-4 0  9995
2 59045  43.0016 343.2423 0001446 253.7057 106.3635 15.25924692 28171
STARLINK-31205          
1 59046U 24038Z   24232.71266912 -.00013252  00000+0 -49822-3 0  9990
2 59046  43.0007 343.2245 0000864 249.6124 110.4635 15.25874634 28116
