OBJECT_NAME,OBJECT_ID,EPOCH,MEAN_MOTION,ECCENTRICITY,INCLINATION,RA_OF_ASC_NODE,ARG_OF_PERICENTER,MEAN_ANOMALY,EPHEMERIS_TYPE,CLASSIFICATION_TYPE,NORAD_CAT_ID,ELEMENT_SET_NO,REV_AT_EPOCH,BSTAR,MEAN_MOTION_DOT,MEAN_MOTION_DDOT
STARLINK-31178,2024-038C,2024-08-19T08:42:34.313760,15.25891262,.000176,42.9998,345.7394,198.8251,161.2535,0,U,59025,999,2794,-.23303E-3,-.6345E-4,0
STARLINK-31227,2024-038D,2024-08-19T08:39:17.377920,15.25919426,.0001511,43.0030,345.7254,239.3667,120.7036,0,U,59026,999,2805,-.48285E-4,-.1521E-4,0
STARLINK-30863,2024-038E,2024-08-19T16:27:20.396736,15.25892239,.0002695,43.0096,343.8696,269.4442,90.6101,0,U,59027,999,2800,-.24519E-3,-.6663E-4,0
STARLINK-31206,2024-038F,2024-08-19T14:37:46.895520,15.40644297,.0001788,43.0037,309.2331,199.8865,160.1922,0,U,59028,999,2851,.13216E-4,.248E-5,0
STARLINK-31224,2024-038G,2024-08-19T08:32:47.595552,15.25930845,.0001007,42.9995,345.6911,217.7570,142.3211,0,U,59029,999,2805,.23099E-3,.5793E-4,0
STARLINK-31186,2024-038H,2024-08-19T08:29:31.871040,15.25900819,.0002665,43.0080,345.6809,281.0938,78.9613,0,U,59030,999,2805,-.22914E-3,-.6246E-4,0
STARLINK-31211,2024-038J,2024-08-19T16:17:35.855808,15.25856893,.0000352,42.9989,343.8134,209.6749,150.4082,0,U,59031,999,2800,-.58187E-3,-.15421E-3,0
STARLINK-30862,2024-038K,2024-08-19T13:54:27.041760,15.25887252,.00007,43.0005,343.9487,208.1640,151.9173,0,U,59032,999,2799,-.90015E-4,-.2609E-4,0
STARLINK-31210,2024-038L,2024-08-19T13:51:13.168800,15.25880467,.0001612,42.9979,343.9224,190.5370,169.5448,0,U,59033,999,2815,.66222E-3,.1709E-3,0
STARLINK-31231,2024-038M,2024-08-19T09:01:53.288544,15.25907746,.0001617,43.0014,344.9951,242.4618,117.6069,0,U,59034,999,2795,-.13556E-3,-.3802E-4,0
STARLINK-31207,2024-038N,2024-08-19T08:58:39.862272,15.25895811,.0001025,43.0021,344.9775,278.1010,81.9725,0,U,59035,999,2812,-.34839E-3,-.9355E-4,0
STARLINK-31217,2024-038P,2024-08-19T13:05:13.901856,15.40674828,.0002619,43.0014,322.9061,274.9997,85.0561,0,U,59036,999,2839,.9382E-4,.3614E-4,0
STARLINK-31208,2024-038Q,2024-08-19T08:13:03.830016,15.25892426,.0003195,43.0065,344.7087,293.1565,66.8949,0,U,59037,999,2812,-.3881E-3,-.10392E-3,0
STARLINK-31235,2024-038R,2024-08-19T07:21:08.103456,15.25896914,.0001171,42.9990,345.3222,195.7008,164.3807,0,U,59038,999,2805,-.13181E-3,-.3702E-4,0
STARLINK-31220,2024-038S,2024-08-19T09:40:58.484352,15.25874143,.0002985,43.0062,345.1993,288.8506,71.2021,0,U,59039,999,2806,-.76181E-3,-.20112E-3,0
STARLINK-31225,2024-038T,2024-08-19T16:13:43.658400,15.25878525,.0001689,43.0064,341.1713,282.4735,77.5927,0,U,59040,999,2802,-.49419E-3,-.13149E-3,0
STARLINK-31240,2024-038U,2024-08-19T15:48:14.794848,15.25918804,.000134,43.0031,343.6722,248.4908,111.5800,0,U,59041,999,2812,-.13606E-3,-.3816E-4,0
STARLINK-31202,2024-038V,2024-08-19T13:47:46.036032,15.25887268,.0001471,43.0061,343.0583,281.4042,78.6644,0,U,59042,999,2816,-.16518E-3,-.4573E-4,0
STARLINK-31234,2024-038W,2024-08-19T17:12:45.162432,15.25905133,.0001448,43.0020,343.2606,254.9683,105.1008,0,U,59043,999,2795,-.53917E-4,-.1667E-4,0
STARLINK-31153,2024-038X,2024-08-19T16:40:10.460064,15.25807817,.0001294,42.9997,343.0679,214.3518,145.7249,0,U,59044,999,2800,.61173E-3,.15729E-3,0
STARLINK-31241,2024-038Y,2024-08-19T17:09:29.175264,15.25924692,.0001446,43.0016,343.2423,253.7057,106.3635,0,U,59045,999,2817,-.23277E-4,-.867E-5,0
STARLINK-31205,2024-038Z,2024-08-19T17:06:14.611968,15.25874634,.0000864,43.0007,343.2245,249.6124,110.4635,0,U,59046,999,2811,-.49822E-3,-.13252E-3,0
